{
    "links": {
        "self": "http://www.neowsapp.com/rest/v1/neo/3279376?api_key=iIulBulltgU6a56xZRHN4H3l9WmuAYTsLGpBGhQ2"
    },
    "id": "3279376",
    "neo_reference_id": "3279376",
    "name": "(2005 LO3)",
    "designation": "2005 LO3",
    "nasa_jpl_url": "http://ssd.jpl.nasa.gov/sbdb.cgi?sstr=3279376",
    "absolute_magnitude_h": 23.5,
    "estimated_diameter": {
        "kilometers": {
            "estimated_diameter_min": 0.0530340723,
            "estimated_diameter_max": 0.1185877909
        },
        "meters": {
            "estimated_diameter_min": 53.0340723319,
            "estimated_diameter_max": 118.5877908577
        },
        "miles": {
            "estimated_diameter_min": 0.0329538346,
            "estimated_diameter_max": 0.0736870142
        },
        "feet": {
            "estimated_diameter_min": 173.9963058693,
            "estimated_diameter_max": 389.0675677576
        }
    },
    "is_potentially_hazardous_asteroid": false,
    "close_approach_data": [
        {
            "close_approach_date": "2005-06-16",
            "close_approach_date_full": "2005-Jun-16 14:46",
            "epoch_date_close_approach": 1118933160000,
            "relative_velocity": {
                "kilometers_per_second": "6.4596050853",
                "kilometers_per_hour": "23254.5783071274",
                "miles_per_hour": "14449.4906153371"
            },
            "miss_distance": {
                "astronomical": "0.1729488328",
                "lunar": "67.2770959592",
                "kilometers": "25872777.005866136",
                "miles": "16076598.1496832368"
            },
            "orbiting_body": "Earth"
        }
    ],
    "orbital_data": {
        "orbit_id": "12",
        "orbit_determination_date": "2017-04-06 09:10:54",
        "first_observation_date": "2005-06-04",
        "last_observation_date": "2005-06-17",
        "data_arc_in_days": 13,
        "observations_used": 37,
        "orbit_uncertainty": "8",
        "minimum_orbit_intersection": ".171269",
        "jupiter_tisserand_invariant": "3.457",
        "epoch_osculation": "2453528.5",
        "eccentricity": ".4724379143094481",
        "semi_major_axis": "2.249052491956797",
        "inclination": "9.402995113558749",
        "ascending_node_longitude": "88.26882239205922",
        "orbital_period": "1231.963425176171",
        "perihelion_distance": "1.186514823484261",
        "perihelion_argument": "174.1840734091095",
        "aphelion_distance": "3.311590160429334",
        "perihelion_time": "2453536.268719938780",
        "mean_anomaly": "357.7298521037174",
        "mean_motion": ".2922164673423807",
        "equinox": "J2000",
        "orbit_class": {
            "orbit_class_type": "AMO",
            "orbit_class_description": "Near-Earth asteroid orbits similar to that of 1221 Amor",
            "orbit_class_range": "1.017 AU < q (perihelion) < 1.3 AU"
        }
    },
    "is_sentry_object": false
}